{
  "type": "FeatureCollection",
  "features": [
    {
      "type": "Feature",
      "properties": {
        "norad_id": 34036,
        "name": "COSMOS 2251 DEB",
        "group": "cosmos-2251-debris",
        "lat": -66.5549663976978,
        "lon": 12.541607273379869,
        "alt_km": 586.4076061428023,
        "timestamp": "2025-12-11T18:59:46.468812+00:00",
        "meta_object_name": "COSMOS 2251 DEB",
        "meta_object_id": "1993-036HX",
        "meta_epoch": "2025-12-10T06:31:52.361184",
        "meta_mean_motion": 14.9462929,
        "meta_eccentricity": 0.0012901,
        "meta_inclination": 74.0201,
        "meta_ra_of_asc_node": 154.2466,
        "meta_arg_of_pericenter": 187.8957,
        "meta_mean_anomaly": 172.2026,
        "meta_ephemeris_type": 0,
        "meta_classification_type": "U",
        "meta_norad_cat_id": 34036,
        "meta_element_set_no": 999,
        "meta_rev_at_epoch": 88533,
        "meta_bstar": 0.0061833,
        "meta_mean_motion_dot": 0.0006772,
        "meta_mean_motion_ddot": 0,
        "tle_line1": "1 34036U 93036HX  25344.27213381  .00067720  00000+0  61833-2 0  9996",
        "tle_line2": "2 34036  74.0201 154.2466 0012901 187.8957 172.2026 14.94629290885331"
      },
      "geometry": {
        "type": "Point",
        "coordinates": [
          12.541607273379869,
          -66.5549663976978
        ]
      }
    },
    {
      "type": "Feature",
      "properties": {
        "norad_id": 34037,
        "name": "COSMOS 2251 DEB",
        "group": "cosmos-2251-debris",
        "lat": 20.86950816413155,
        "lon": -134.080310393349,
        "alt_km": 754.5973801194177,
        "timestamp": "2025-12-11T18:59:46.468823+00:00",
        "meta_object_name": "COSMOS 2251 DEB",
        "meta_object_id": "1993-036HY",
        "meta_epoch": "2025-12-11T06:33:06.393888",
        "meta_mean_motion": 14.34660476,
        "meta_eccentricity": 0.00520294,
        "meta_inclination": 74.0522,
        "meta_ra_of_asc_node": 53.1269,
        "meta_arg_of_pericenter": 103.5893,
        "meta_mean_anomaly": 257.1062,
        "meta_ephemeris_type": 0,
        "meta_classification_type": "U",
        "meta_norad_cat_id": 34037,
        "meta_element_set_no": 999,
        "meta_rev_at_epoch": 87696,
        "meta_bstar": 0.00081118559,
        "meta_mean_motion_dot": 2.305e-05,
        "meta_mean_motion_ddot": 0,
        "tle_line1": "1 34037U 93036HY  25345.27299067  .00002305  00000+0  81119-3 0  9991",
        "tle_line2": "2 34037  74.0522  53.1269 0052029 103.5893 257.1062 14.34660476876962"
      },
      "geometry": {
        "type": "Point",
        "coordinates": [
          -134.080310393349,
          20.86950816413155
        ]
      }
    },
    {
      "type": "Feature",
      "properties": {
        "norad_id": 34040,
        "name": "COSMOS 2251 DEB",
        "group": "cosmos-2251-debris",
        "lat": -73.94654655020993,
        "lon": -22.782285895028792,
        "alt_km": 1095.7156456967286,
        "timestamp": "2025-12-11T18:59:46.468833+00:00",
        "meta_object_name": "COSMOS 2251 DEB",
        "meta_object_id": "1993-036JB",
        "meta_epoch": "2025-12-11T07:08:33.558432",
        "meta_mean_motion": 13.68372106,
        "meta_eccentricity": 0.034299,
        "meta_inclination": 73.9559,
        "meta_ra_of_asc_node": 68.2461,
        "meta_arg_of_pericenter": 21.9082,
        "meta_mean_anomaly": 339.63,
        "meta_ephemeris_type": 0,
        "meta_classification_type": "U",
        "meta_norad_cat_id": 34040,
        "meta_element_set_no": 999,
        "meta_rev_at_epoch": 83580,
        "meta_bstar": 0.00061842905,
        "meta_mean_motion_dot": 7.75e-06,
        "meta_mean_motion_ddot": 0,
        "tle_line1": "1 34040U 93036JB  25345.29761063  .00000775  00000+0  61843-3 0  9998",
        "tle_line2": "2 34040  73.9559  68.2461 0342990  21.9082 339.6300 13.68372106835802"
      },
      "geometry": {
        "type": "Point",
        "coordinates": [
          -22.782285895028792,
          -73.94654655020993
        ]
      }
    },
    {
      "type": "Feature",
      "properties": {
        "norad_id": 34045,
        "name": "COSMOS 2251 DEB",
        "group": "cosmos-2251-debris",
        "lat": -23.472120813776304,
        "lon": 139.7058042636057,
        "alt_km": 801.1960460083619,
        "timestamp": "2025-12-11T18:59:46.468843+00:00",
        "meta_object_name": "COSMOS 2251 DEB",
        "meta_object_id": "1993-036JG",
        "meta_epoch": "2025-12-11T06:49:39.471168",
        "meta_mean_motion": 14.34067728,
        "meta_eccentricity": 0.00256092,
        "meta_inclination": 74.0391,
        "meta_ra_of_asc_node": 313.4943,
        "meta_arg_of_pericenter": 37.3788,
        "meta_mean_anomaly": 70.3849,
        "meta_ephemeris_type": 0,
        "meta_classification_type": "U",
        "meta_norad_cat_id": 34045,
        "meta_element_set_no": 999,
        "meta_rev_at_epoch": 88012,
        "meta_bstar": 0.0001698426,
        "meta_mean_motion_dot": 4.51e-06,
        "meta_mean_motion_ddot": 0,
        "tle_line1": "1 34045U 93036JG  25345.28448462  .00000451  00000+0  16984-3 0  9994",
        "tle_line2": "2 34045  74.0391 313.4943 0025609  37.3788  70.3849 14.34067728880129"
      },
      "geometry": {
        "type": "Point",
        "coordinates": [
          139.7058042636057,
          -23.472120813776304
        ]
      }
    },
    {
      "type": "Feature",
      "properties": {
        "norad_id": 34046,
        "name": "COSMOS 2251 DEB",
        "group": "cosmos-2251-debris",
        "lat": 27.16753983400127,
        "lon": -176.2019843641689,
        "alt_km": 705.5402952332788,
        "timestamp": "2025-12-11T18:59:46.468854+00:00",
        "meta_object_name": "COSMOS 2251 DEB",
        "meta_object_id": "1993-036JH",
        "meta_epoch": "2025-12-11T03:37:38.995392",
        "meta_mean_motion": 14.46450263,
        "meta_eccentricity": 0.00745471,
        "meta_inclination": 74.0398,
        "meta_ra_of_asc_node": 13.4387,
        "meta_arg_of_pericenter": 97.336,
        "meta_mean_anomaly": 320.3371,
        "meta_ephemeris_type": 0,
        "meta_classification_type": "U",
        "meta_norad_cat_id": 34046,
        "meta_element_set_no": 999,
        "meta_rev_at_epoch": 87803,
        "meta_bstar": 0.0016796596,
        "meta_mean_motion_dot": 6.23e-05,
        "meta_mean_motion_ddot": 0,
        "tle_line1": "1 34046U 93036JH  25345.15114578  .00006230  00000+0  16797-2 0  9991",
        "tle_line2": "2 34046  74.0398  13.4387 0074547  97.3360 320.3371 14.46450263878031"
      },
      "geometry": {
        "type": "Point",
        "coordinates": [
          -176.2019843641689,
          27.16753983400127
        ]
      }
    },
    {
      "type": "Feature",
      "properties": {
        "norad_id": 34050,
        "name": "COSMOS 2251 DEB",
        "group": "cosmos-2251-debris",
        "lat": -19.782824873750148,
        "lon": -162.4315600486395,
        "alt_km": 997.4790720984502,
        "timestamp": "2025-12-11T18:59:46.468864+00:00",
        "meta_object_name": "COSMOS 2251 DEB",
        "meta_object_id": "1993-036JM",
        "meta_epoch": "2025-12-11T04:37:24.685248",
        "meta_mean_motion": 13.96177043,
        "meta_eccentricity": 0.02145551,
        "meta_inclination": 74.0884,
        "meta_ra_of_asc_node": 12.7063,
        "meta_arg_of_pericenter": 77.4185,
        "meta_mean_anomaly": 352.1699,
        "meta_ephemeris_type": 0,
        "meta_classification_type": "U",
        "meta_norad_cat_id": 34050,
        "meta_element_set_no": 999,
        "meta_rev_at_epoch": 85410,
        "meta_bstar": 0.00073777738,
        "meta_mean_motion_dot": 1.209e-05,
        "meta_mean_motion_ddot": 0,
        "tle_line1": "1 34050U 93036JM  25345.19264682  .00001209  00000+0  73778-3 0  9996",
        "tle_line2": "2 34050  74.0884  12.7063 0214555  77.4185 352.1699 13.96177043854102"
      },
      "geometry": {
        "type": "Point",
        "coordinates": [
          -162.4315600486395,
          -19.782824873750148
        ]
      }
    },
    {
      "type": "Feature",
      "properties": {
        "norad_id": 34053,
        "name": "COSMOS 2251 DEB",
        "group": "cosmos-2251-debris",
        "lat": -31.456914994865834,
        "lon": -126.51460601619664,
        "alt_km": 938.2899433138746,
        "timestamp": "2025-12-11T18:59:46.468875+00:00",
        "meta_object_name": "COSMOS 2251 DEB",
        "meta_object_id": "1993-036JQ",
        "meta_epoch": "2025-12-11T03:08:04.459488",
        "meta_mean_motion": 13.49157138,
        "meta_eccentricity": 0.04221281,
        "meta_inclination": 73.8443,
        "meta_ra_of_asc_node": 244.7642,
        "meta_arg_of_pericenter": 33.5797,
        "meta_mean_anomaly": 329.131,
        "meta_ephemeris_type": 0,
        "meta_classification_type": "U",
        "meta_norad_cat_id": 34053,
        "meta_element_set_no": 999,
        "meta_rev_at_epoch": 82662,
        "meta_bstar": 0.0010512613,
        "meta_mean_motion_dot": 1.125e-05,
        "meta_mean_motion_ddot": 0,
        "tle_line1": "1 34053U 93036JQ  25345.13060717  .00001125  00000+0  10513-2 0  9990",
        "tle_line2": "2 34053  73.8443 244.7642 0422128  33.5797 329.1310 13.49157138826623"
      },
      "geometry": {
        "type": "Point",
        "coordinates": [
          -126.51460601619664,
          -31.456914994865834
        ]
      }
    }
  ]
}